{"@id":"https://w3id.org/CSV%20katalog","type":"FeatureCollection","@context":"https://w3id.org/locolligo/contexts/linkedplaces.jsonld","features":[{"@id":1,"type":"Feature","properties":{"title":"","place_name":"Møllebakken, Bornholm","site_and_location_no":{"_":60405},"parish":"Østerlarsker sogn"},"geometry":null,"depictions":[{"title":"C 6"}]},{"@id":2,"type":"Feature","properties":{"title":"","place_name":"Møllebakken, Bornholm","site_and_location_no":{"_":60405},"parish":"Østerlarsker sogn"},"geometry":null,"depictions":[{"title":"C 32"}]},{"@id":3,"type":"Feature","properties":{"title":"","place_name":"Møllebakken, Bornholm","site_and_location_no":{"_":60405},"parish":"Østerlarsker sogn"},"geometry":null,"depictions":[{"title":"C 33"}]},{"@id":4,"type":"Feature","properties":{"title":"","place_name":"Møllebakken, Bornholm","site_and_location_no":{"_":60405},"parish":"Østerlarsker sogn"},"geometry":null,"depictions":[{"title":"C 34"}]},{"@id":5,"type":"Feature","properties":{"title":"","place_name":"Møllebakken, Bornholm","site_and_location_no":{"_":60405},"parish":"Østerlarsker sogn"},"geometry":null,"depictions":[{"title":"C 40"}]},{"@id":6,"type":"Feature","properties":{"title":"","place_name":"Selvejergård","site_and_location_no":{"_":60106},"parish":"Rutsker sogn"},"geometry":null,"depictions":[{"title":"C 120"}]},{"@id":7,"type":"Feature","properties":{"title":"","place_name":"Skjernede","site_and_location_no":{"_":70103},"parish":"Gundslev sogn"},"geometry":null,"depictions":[{"title":"C 288"}]},{"@id":8,"type":"Feature","properties":{"title":"","place_name":"Skonager","site_and_location_no":{"_":190509},"parish":"Næsbjerg sogn"},"geometry":null,"depictions":[{"title":"C 719"}]},{"@id":9,"type":"Feature","properties":{"title":"","place_name":"St. Kannikegård","site_and_location_no":{"_":60201},"parish":"Bodilsker sogn"},"geometry":null,"depictions":[{"title":"C 1499"}]},{"@id":10,"type":"Feature","properties":{"title":"","place_name":"Filholm Mose, Thise","site_and_location_no":{"_":100112},"parish":"Tise sogn"},"geometry":null,"depictions":[{"title":"C1577"}]},{"@id":11,"type":"Feature","properties":{"title":"","place_name":"Melsted, Bornholm","site_and_location_no":{"_":60402},"parish":"Gudhjem sogn"},"geometry":null,"depictions":[{"title":"C 2943"}]},{"@id":12,"type":"Feature","properties":{"title":"","place_name":"Melsted, Bornholm","site_and_location_no":{"_":60402},"parish":"Gudhjem sogn"},"geometry":null,"depictions":[{"title":"C 2944"}]},{"@id":13,"type":"Feature","properties":{"title":"","place_name":"Nedelsø Mose, Ganløse","site_and_location_no":{"_":10602},"parish":"Ganløse sogn"},"geometry":null,"depictions":[{"title":"C3500"}]},{"@id":14,"type":"Feature","properties":{"title":"","place_name":"Kjellers Mose, Ringkøbing","site_and_location_no":{"_":180202},"parish":"Estvad sogn"},"geometry":null,"depictions":[{"title":"C 5221"}]},{"@id":15,"type":"Feature","properties":{"title":"","place_name":"Ullits Vasernes Mark","site_and_location_no":{"_":120213},"parish":"Ullits sogn"},"geometry":null,"depictions":[{"title":"C7154"}]},{"@id":16,"type":"Feature","properties":{"title":"","place_name":"Nørre Tranders","site_and_location_no":{"_":120108},"parish":"Nørre Tranders sogn"},"geometry":null,"depictions":[{"title":"C7648"}]},{"@id":17,"type":"Feature","properties":{"title":"","place_name":"Tåstrupgård, København","site_and_location_no":{"_":20207},"parish":"Høje Tåstrup Sogn sogn"},"geometry":null,"depictions":[{"title":"C 26665"}]},{"@id":18,"type":"Feature","properties":{"title":"","place_name":"Smørengegård","site_and_location_no":{"_":60305},"parish":"Vestermarie sogn"},"geometry":null,"depictions":[{"title":"C32032"}]},{"@id":19,"type":"Feature","properties":{"title":"","place_name":"Lille Norge","site_and_location_no":{"_":100406},"parish":"Saltum sogn"},"geometry":null,"depictions":[{"title":"C 34747"}]},{"@id":20,"type":"Feature","properties":{"title":"","place_name":"Ndr. Mulebygård","site_and_location_no":{"_":60302},"parish":"Nyker sogn"},"geometry":null,"depictions":[{"title":"C 35104"}]},{"@id":21,"type":"Feature","properties":{"title":"","place_name":"Ndr. Mulebygård","site_and_location_no":{"_":60302},"parish":"Nyker sogn"},"geometry":{"type":"Point","coordinates":[15,55]},"depictions":[{"title":"C 35119"}]},{"@id":22,"type":"Feature","properties":{"title":"","place_name":"Ndr. Mulebygård","site_and_location_no":{"_":60302},"parish":"Nyker sogn"},"geometry":{"type":"Point","coordinates":[15,55]},"depictions":[{"title":"C 35120"}]},{"@id":23,"type":"Feature","properties":{"title":"","place_name":" Bakkegård / Agerbygård","site_and_location_no":{"_":60405},"parish":"Østerlarsker sogn"},"geometry":null,"depictions":[{"title":"C 35166"}]},{"@id":24,"type":"Feature","properties":{"title":"","place_name":"Brændesgård, 10.\nVgd./Sønderhøj","site_and_location_no":{"_":60403},"parish":"Ibsker sogn"},"geometry":null,"depictions":[{"title":"C 35266"}]},{"@id":25,"type":"Feature","properties":{"title":"","place_name":"Sigersted Kirke","site_and_location_no":{"_":40214},"parish":"Sigersted sogn"},"geometry":null,"depictions":[{"title":"C 35414"}]},{"@id":26,"type":"Feature","properties":{"title":"","place_name":" Gudme-Området","site_and_location_no":{"_":90104},"parish":"Gudme sogn"},"geometry":null,"depictions":[{"title":"C 35576"}]},{"@id":27,"type":"Feature","properties":{"title":"","place_name":"Store Gadegård","site_and_location_no":{"_":60203},"parish":"Pedersker sogn"},"geometry":null,"depictions":[{"title":"C 35675"}]},{"@id":28,"type":"Feature","properties":{"title":"","place_name":"Sylten Ii","site_and_location_no":{"_":60403},"parish":"Ibsker sogn"},"geometry":null,"depictions":[{"title":"C 35984"}]},{"@id":29,"type":"Feature","properties":{"title":"","place_name":"Smørengegård","site_and_location_no":{"_":60305},"parish":"Vestermarie sogn"},"geometry":null,"depictions":[{"title":"C 36019"}]},{"@id":30,"type":"Feature","properties":{"title":"","place_name":"Smørengegård","site_and_location_no":{"_":60305},"parish":"Vestermarie sogn"},"geometry":null,"depictions":[{"title":"C 36020"}]},{"@id":31,"type":"Feature","properties":{"title":"","place_name":"Smørengegård","site_and_location_no":{"_":60305},"parish":"Vestermarie sogn"},"geometry":null,"depictions":[{"title":"C 36021"}]},{"@id":32,"type":"Feature","properties":{"title":"","place_name":" Engegård Syd","site_and_location_no":{"_":60403},"parish":"Ibsker sogn"},"geometry":null,"depictions":[{"title":"C 36048"}]},{"@id":33,"type":"Feature","properties":{"title":"","place_name":"Smørenge","site_and_location_no":{"_":60305},"parish":"Vestermarie sogn"},"geometry":null,"depictions":[{"title":"C 36315"}]},{"@id":34,"type":"Feature","properties":{"title":"","place_name":"Nørholm (Syd For)","site_and_location_no":{"_":120508},"parish":"Nørholm sogn"},"geometry":null,"depictions":[{"title":"C 36571"}]},{"@id":35,"type":"Feature","properties":{"title":"","place_name":"Store Dalbygård","site_and_location_no":{"_":60305},"parish":"Vestermarie sogn"},"geometry":null,"depictions":[{"title":"C 36740"}]},{"@id":36,"type":"Feature","properties":{"title":"","place_name":"Højemark/ Skovsholm","site_and_location_no":{"_":60403},"parish":"Ibsker sogn"},"geometry":null,"depictions":[{"title":"C 36932"}]},{"@id":37,"type":"Feature","properties":{"title":"","place_name":"Maglegård","site_and_location_no":{"_":60406},"parish":"Østermarie sogn"},"geometry":null,"depictions":[{"title":"C 36983"}]},{"@id":38,"type":"Feature","properties":{"title":"","place_name":"Granly","site_and_location_no":{"_":80803},"parish":"Fraugde sogn"},"geometry":null,"depictions":[{"title":"C 37065"}]},{"@id":39,"type":"Feature","properties":{"title":"","place_name":"Bringstrup Skole S","site_and_location_no":{"_":40203},"parish":"Bringstrup sogn"},"geometry":null,"depictions":[{"title":"C 37668"}]},{"@id":40,"type":"Feature","properties":{"title":"","place_name":"St. Smørengegård Nv","site_and_location_no":{"_":60305},"parish":"Vestermarie sogn"},"geometry":null,"depictions":[{"title":"C 37915"}]},{"@id":41,"type":"Feature","properties":{"title":"","place_name":"St. Smørengegård Nv","site_and_location_no":{"_":60306},"parish":"Vestermarie sogn"},"geometry":null,"depictions":[{"title":"C 37916"}]},{"@id":42,"type":"Feature","properties":{"title":"","place_name":"St. Smørengegård Nv","site_and_location_no":{"_":60307},"parish":"Vestermarie sogn"},"geometry":null,"depictions":[{"title":"C 37917"}]},{"@id":43,"type":"Feature","properties":{"title":"","place_name":"St. Smørengegård Nv","site_and_location_no":{"_":60308},"parish":"Vestermarie sogn"},"geometry":null,"depictions":[{"title":"C 37918"}]},{"@id":44,"type":"Feature","properties":{"title":"","place_name":"Søtoftegård","site_and_location_no":{"_":10602},"parish":"Ganløse sogn"},"geometry":null,"depictions":[{"title":"C 38606"}]},{"@id":45,"type":"Feature","properties":{"title":"","place_name":"Smørenge","site_and_location_no":{"_":60305},"parish":"Vestermarie sogn"},"geometry":null,"depictions":[{"title":"C 38925"}]},{"@id":46,"type":"Feature","properties":{"title":"","place_name":"Skærum Mølle","site_and_location_no":{"_":180809},"parish":"Ulfborg sogn"},"geometry":null,"depictions":[{"title":"C 39032"}]},{"@id":47,"type":"Feature","properties":{"title":"","place_name":"Møllehøjgård, Ølby","site_and_location_no":{"_":20105},"parish":"Højelse sogn"},"geometry":null,"depictions":[{"title":"C 39234"}]},{"@id":48,"type":"Feature","properties":{"title":"","place_name":"Møllehøjgård, Ølby","site_and_location_no":{"_":20106},"parish":"Højelse sogn"},"geometry":null,"depictions":[{"title":"C 39253"}]},{"@id":49,"type":"Feature","properties":{"title":"","place_name":"Møllehøjgård, Ølby","site_and_location_no":{"_":20107},"parish":"Højelse sogn"},"geometry":null,"depictions":[{"title":"C 39254"}]},{"@id":50,"type":"Feature","properties":{"title":"","place_name":"Sigersted Nø","site_and_location_no":{"_":40214},"parish":"Sigersted sogn"},"geometry":null,"depictions":[{"title":"C 40275"}]},{"@id":51,"type":"Feature","properties":{"title":"","place_name":"Kalvehave Syd","site_and_location_no":{"_":90704},"parish":"Rise sogn"},"geometry":null,"depictions":[{"title":"C 41102"}]},{"@id":52,"type":"Feature","properties":{"title":"","place_name":"Kildegård V","site_and_location_no":{"_":10309},"parish":"Nørre Herlev sogn"},"geometry":null,"depictions":[{"title":"C 41141"}]},{"@id":53,"type":"Feature","properties":{"title":"","place_name":"Kildegård V","site_and_location_no":{"_":10310},"parish":"Nørre Herlev sogn"},"geometry":null,"depictions":[{"title":"C 41142"}]},{"@id":54,"type":"Feature","properties":{"title":"","place_name":"Høvlsbakke","site_and_location_no":{"_":10107},"parish":"Mårum sogn"},"geometry":null,"depictions":[{"title":"C 41229"}]},{"@id":55,"type":"Feature","properties":{"title":"","place_name":"Gammel Hviding","site_and_location_no":{"_":210103},"parish":"Hviding sogn"},"geometry":null,"depictions":[{"title":"C 42412"}]},{"@id":56,"type":"Feature","properties":{"title":"","place_name":"Høvlsbakke","site_and_location_no":{"_":10107},"parish":"Mårum sogn"},"geometry":null,"depictions":[{"title":"C 42491"}]},{"@id":57,"type":"Feature","properties":{"title":"","place_name":"Høvlsbakke","site_and_location_no":{"_":10108},"parish":"Mårum sogn"},"geometry":null,"depictions":[{"title":"C 42492"}]},{"@id":58,"type":"Feature","properties":{"title":"","place_name":"Høvlsbakke","site_and_location_no":{"_":10109},"parish":"Mårum sogn"},"geometry":null,"depictions":[{"title":"C 42494"}]},{"@id":59,"type":"Feature","properties":{"title":"","place_name":"Rosenbækgård Syd,","site_and_location_no":{"_":50104},"parish":"Herfølge sogn"},"geometry":null,"depictions":[{"title":"C 42577"}]},{"@id":60,"type":"Feature","properties":{"title":"","place_name":"Revet","site_and_location_no":{"_":150412},"parish":"Tunø sogn"},"geometry":null,"depictions":[{"title":"C 42644"}]},{"@id":61,"type":"Feature","properties":{"title":"","place_name":"Sanderumgård Øst","site_and_location_no":{"_":80802},"parish":"Davinde sogn"},"geometry":null,"depictions":[{"title":"C 43174"}]},{"@id":62,"type":"Feature","properties":{"title":"","place_name":"Kilshøjgård","site_and_location_no":{"_":140606},"parish":"Kousted sogn"},"geometry":null,"depictions":[{"title":"C 43286"}]},{"@id":63,"type":"Feature","properties":{"title":"","place_name":"Lehnsgaard","site_and_location_no":{"_":60405},"parish":"Østerlarsker sogn"},"geometry":null,"depictions":[{"title":"C 43496"}]},{"@id":64,"type":"Feature","properties":{"title":"","place_name":"Lehnsgaard","site_and_location_no":{"_":60405},"parish":"Østerlarsker sogn"},"geometry":null,"depictions":[{"title":"C 43497"}]},{"@id":65,"type":"Feature","properties":{"title":"","place_name":"Gudme Ii N","site_and_location_no":{"_":90104},"parish":"Gudme sogn"},"geometry":null,"depictions":[{"title":"C 44100"}]},{"@id":66,"type":"Feature","properties":{"title":"","place_name":"Holløse Syd","site_and_location_no":{"_":30305},"parish":"Kvanløse sogn"},"geometry":null,"depictions":[{"title":"C 44374"}]},{"@id":67,"type":"Feature","properties":{"title":"","place_name":"Kildegård V","site_and_location_no":{"_":10309},"parish":"Nørre Herlev sogn"},"geometry":null,"depictions":[{"title":"C 44393"}]},{"@id":68,"type":"Feature","properties":{"title":"","place_name":"Vennekilde","site_and_location_no":{"_":10405},"parish":"Grønholt sogn"},"geometry":null,"depictions":[{"title":"C 44450"}]},{"@id":69,"type":"Feature","properties":{"title":"","place_name":"Vennekilde","site_and_location_no":{"_":10405},"parish":"Grønholt sogn"},"geometry":null,"depictions":[{"title":"C 44451"}]},{"@id":70,"type":"Feature","properties":{"title":"","place_name":"Neble","site_and_location_no":{"_":40301},"parish":"Boeslunde sogn"},"geometry":null,"depictions":[{"title":"C 44730"}]},{"@id":71,"type":"Feature","properties":{"title":"","place_name":"Højbygård","site_and_location_no":{"_":70319},"parish":"Tågerup sogn"},"geometry":null,"depictions":[{"title":"C 44856"}]},{"@id":72,"type":"Feature","properties":{"title":"","place_name":"Holeby Ii","site_and_location_no":{"_":70309},"parish":"Holeby sogn"},"geometry":null,"depictions":[{"title":"C 45232"}]},{"@id":73,"type":"Feature","properties":{"title":"","place_name":"Aggersborg","site_and_location_no":{"_":100701},"parish":"Aggersborg sogn"},"geometry":null,"depictions":[{"title":"C 45384"}]},{"@id":74,"type":"Feature","properties":{"title":"","place_name":"Høvlsbakke","site_and_location_no":{"_":10107},"parish":"Mårum sogn"},"geometry":null,"depictions":[{"title":"C45435"}]},{"@id":75,"type":"Feature","properties":{"title":"","place_name":"Busbjergvej","site_and_location_no":{"_":130502},"parish":"Gerning sogn"},"geometry":null,"depictions":[{"title":"C 45567"}]},{"@id":76,"type":"Feature","properties":{"title":"","place_name":"Gammel Skjern","site_and_location_no":{"_":130710},"parish":"Skjern sogn"},"geometry":null,"depictions":[{"title":"C 46027"}]},{"@id":77,"type":"Feature","properties":{"title":"","place_name":"Allindemaglegård","site_and_location_no":{"_":40201},"parish":"Allindemagle sogn"},"geometry":null,"depictions":[{"title":"C 46098"}]},{"@id":78,"type":"Feature","properties":{"title":"","place_name":"Smørengegård","site_and_location_no":{"_":60305},"parish":"Vestermarie sogn"},"geometry":null,"depictions":[{"title":"C 46642"}]},{"@id":79,"type":"Feature","properties":{"title":"","place_name":"St. Dalbygård","site_and_location_no":{"_":60305},"parish":"Vestermarie sogn"},"geometry":null,"depictions":[{"title":"C 46770"}]},{"@id":80,"type":"Feature","properties":{"title":"","place_name":"Runegård","site_and_location_no":{"_":60205},"parish":"Åker sogn"},"geometry":null,"depictions":[{"title":"C 46825"}]},{"@id":81,"type":"Feature","properties":{"title":"","place_name":"Valsted Syd","site_and_location_no":{"_":120711},"parish":"Sebber sogn"},"geometry":null,"depictions":[{"title":"C 47886"}]},{"@id":82,"type":"Feature","properties":{"title":"","place_name":"Trellerupgaard","site_and_location_no":{"_":80109},"parish":"Munkebo sogn"},"geometry":null,"depictions":[{"title":"C 47944"}]},{"@id":83,"type":"Feature","properties":{"title":"","place_name":"Fraugdegård Nordvest","site_and_location_no":{"_":80803},"parish":"Fraugde sogn"},"geometry":null,"depictions":[{"title":"C 48898"}]},{"@id":84,"type":"Feature","properties":{"title":"","place_name":"Øksendrup","site_and_location_no":{"_":90112},"parish":"Øksendrup sogn"},"geometry":null,"depictions":[{"title":"C 49030"}]},{"@id":85,"type":"Feature","properties":{"title":"","place_name":"Jættebro","site_and_location_no":{"_":60406},"parish":"Østermarie sogn"},"geometry":null,"depictions":[{"title":"C 49141"}]},{"@id":86,"type":"Feature","properties":{"title":"","place_name":"Sylten 4","site_and_location_no":{"_":60403},"parish":"Ibsker sogn"},"geometry":null,"depictions":[{"title":"C 49984"}]},{"@id":87,"type":"Feature","properties":{"title":"","place_name":"Nybølle","site_and_location_no":{"_":70509},"parish":"Ryde sogn"},"geometry":null,"depictions":[{"title":"C 50469"}]},{"@id":88,"type":"Feature","properties":{"title":"","place_name":"Gammel Hviding","site_and_location_no":{"_":210103},"parish":"Hviding sogn"},"geometry":null,"depictions":[{"title":"C 50487"}]},{"@id":90,"type":"Feature","properties":{"title":"","place_name":"Sandegård - Hullegård","site_and_location_no":{"_":60406},"parish":"Østermarie sogn"},"geometry":null,"depictions":[{"title":"C 50595"}]},{"@id":91,"type":"Feature","properties":{"title":"","place_name":"Sandegård - Hullegård","site_and_location_no":{"_":60406},"parish":"Østermarie sogn"},"geometry":null,"depictions":[{"title":"C 50596"}]},{"@id":92,"type":"Feature","properties":{"title":"","place_name":"Lehnsgaard","site_and_location_no":{"_":60405},"parish":"Østerlarsker sogn"},"geometry":null,"depictions":[{"title":"C 50787"}]},{"@id":93,"type":"Feature","properties":{"title":"","place_name":"Lehnsgaard","site_and_location_no":{"_":60405},"parish":"Østerlarsker sogn"},"geometry":null,"depictions":[{"title":"C 50788"}]},{"@id":94,"type":"Feature","properties":{"title":"","place_name":"Sorte Muld","site_and_location_no":{"_":60403},"parish":"Ibsker sogn"},"geometry":null,"depictions":[{"title":"C 51100"}]},{"@id":95,"type":"Feature","properties":{"title":"","place_name":"Sorte Muld","site_and_location_no":{"_":60404},"parish":"Ibsker sogn"},"geometry":null,"depictions":[{"title":"C 51101"}]},{"@id":96,"type":"Feature","properties":{"title":"","place_name":"Sorte Muld","site_and_location_no":{"_":60405},"parish":"Ibsker sogn"},"geometry":null,"depictions":[{"title":"C 51141"}]},{"@id":97,"type":"Feature","properties":{"title":"","place_name":"Sorte Muld","site_and_location_no":{"_":60406},"parish":"Ibsker sogn"},"geometry":null,"depictions":[{"title":"C 51142"}]},{"@id":98,"type":"Feature","properties":{"title":"","place_name":"Sorte Muld","site_and_location_no":{"_":60407},"parish":"Ibsker sogn"},"geometry":null,"depictions":[{"title":"C 51143"}]},{"@id":99,"type":"Feature","properties":{"title":"","place_name":"Levringgård","site_and_location_no":{"_":130609},"parish":"Levring sogn"},"geometry":null,"depictions":[{"title":"C 51587"}]},{"@id":100,"type":"Feature","properties":{"title":"","place_name":"Frejlev","site_and_location_no":{"_":120504},"parish":"Frejlev sogn"},"geometry":null,"depictions":[{"title":"C 52414"}]},{"@id":101,"type":"Feature","properties":{"title":"","place_name":"Lunbjerg","site_and_location_no":{"_":160105},"parish":"Linå sogn"},"geometry":null,"depictions":[{"title":"C 52647"}]},{"@id":102,"type":"Feature","properties":{"title":"","place_name":"Lundsgård","site_and_location_no":{"_":80811},"parish":"Åsum sogn"},"geometry":null,"depictions":[{"title":"C 53101"}]},{"@id":103,"type":"Feature","properties":{"title":"","place_name":"Sollykkegård Nordvest","site_and_location_no":{"_":80101},"parish":"Agedrup sogn"},"geometry":null,"depictions":[{"title":"C 53198"}]},{"@id":104,"type":"Feature","properties":{"title":"","place_name":"Lille Røttinge","site_and_location_no":{"_":50211},"parish":"Snesere sogn"},"geometry":null,"depictions":[{"title":"C 53327"}]},{"@id":105,"type":"Feature","properties":{"title":"","place_name":"Sønderhøj/Kanonhøj","site_and_location_no":{"_":60403},"parish":"Ibsker sogn"},"geometry":null,"depictions":[{"title":"C 53540"}]},{"@id":106,"type":"Feature","properties":{"title":"","place_name":"St. Smørengegård Nv/ Guldhul","site_and_location_no":{"_":60305},"parish":"Vestermarie sogn"},"geometry":null,"depictions":[{"title":"C 53773"}]},{"@id":107,"type":"Feature","properties":{"title":"","place_name":"Bakkegård / Agerbygård","site_and_location_no":{"_":60405},"parish":"Østerlarsker sogn"},"geometry":null,"depictions":[{"title":"C 53879"}]},{"@id":108,"type":"Feature","properties":{"title":"","place_name":"Maglegård","site_and_location_no":{"_":60406},"parish":"Østermarie sogn"},"geometry":null,"depictions":[{"title":"C 54162"}]},{"@id":109,"type":"Feature","properties":{"title":"","place_name":"Melby Detektorplads","site_and_location_no":{"_":30110},"parish":"Årby sogn"},"geometry":null,"depictions":[{"title":"C 54938"}]},{"@id":110,"type":"Feature","properties":{"title":"","place_name":"Gyngstrup","site_and_location_no":{"_":80504},"parish":"Krogsbølle sogn"},"geometry":null,"depictions":[{"title":"C 55079"}]},{"@id":111,"type":"Feature","properties":{"title":"","place_name":"Edelhoffvej Ii","site_and_location_no":{"_":150103},"parish":"Harlev sogn"},"geometry":null,"depictions":[{"title":"C 55511"}]},{"@id":112,"type":"Feature","properties":{"title":"","place_name":"Neble","site_and_location_no":{"_":40301},"parish":"Boeslunde sogn"},"geometry":null,"depictions":[{"title":"C 55768"}]},{"@id":113,"type":"Feature","properties":{"title":"","place_name":"Vissmose, Havnelev","site_and_location_no":{"_":50602},"parish":"Havnelev sogn"},"geometry":null,"depictions":[{"title":"C 56205"}]},{"@id":114,"type":"Feature","properties":{"title":"","place_name":"Lunbjerg","site_and_location_no":{"_":160105},"parish":"Linå sogn"},"geometry":null,"depictions":[{"title":"C 56879"}]},{"@id":115,"type":"Feature","properties":{"title":"","place_name":"Snorup","site_and_location_no":{"_":190804},"parish":"Tistrup sogn"},"geometry":null,"depictions":[{"title":"C 57573"}]},{"@id":116,"type":"Feature","properties":{"title":"","place_name":"Lehngaard","site_and_location_no":{"_":60405},"parish":"Østerlarsker sogn"},"geometry":null,"depictions":[{"title":"C 57719"}]},{"@id":117,"type":"Feature","properties":{"title":"","place_name":"Hvam","site_and_location_no":{"_":180502},"parish":"Borbjerg sogn"},"geometry":null,"depictions":[{"title":"C 58006"}]},{"@id":118,"type":"Feature","properties":{"title":"","place_name":"Busbjergvej, Gerning","site_and_location_no":{"_":130502},"parish":"Gerning sogn"},"geometry":null,"depictions":[{"title":"C 58388"}]},{"@id":119,"type":"Feature","properties":{"title":"","place_name":"Store Magleby 2","site_and_location_no":{"_":20309},"parish":"Store Magleby sogn"},"geometry":null,"depictions":[{"title":"C 59037"}]},{"@id":120,"type":"Feature","properties":{"title":"","place_name":"Skrivergården, Lee","site_and_location_no":{"_":130708},"parish":"Lee sogn"},"geometry":null,"depictions":[{"title":"C 59059"}]},{"@id":121,"type":"Feature","properties":{"title":"","place_name":"Fæsted Toft","site_and_location_no":{"_":200107},"parish":"Sønder Hygum sogn"},"geometry":null,"depictions":[{"title":"C 59189"}]},{"@id":122,"type":"Feature","properties":{"title":"","place_name":"Fæsted Toft","site_and_location_no":{"_":200107},"parish":"Sønder Hygum sogn"},"geometry":null,"depictions":[{"title":"C 59190"}]},{"@id":123,"type":"Feature","properties":{"title":"","place_name":"Fæsted Toft","site_and_location_no":{"_":200107},"parish":"Sønder Hygum sogn"},"geometry":null,"depictions":[{"title":"C 59191"}]},{"@id":124,"type":"Feature","properties":{"title":"","place_name":"Fæsted Toft","site_and_location_no":{"_":200107},"parish":"Sønder Hygum sogn"},"geometry":null,"depictions":[{"title":"C 59192"}]},{"@id":125,"type":"Feature","properties":{"title":"","place_name":"Fæsted Toft","site_and_location_no":{"_":200107},"parish":"Sønder Hygum sogn"},"geometry":null,"depictions":[{"title":"C 59201"}]},{"@id":126,"type":"Feature","properties":{"title":"","place_name":"Fæsted Toft","site_and_location_no":{"_":200107},"parish":"Sønder Hygum sogn"},"geometry":null,"depictions":[{"title":"C 59202"}]},{"@id":127,"type":"Feature","properties":{"title":"","place_name":"Fæsted Toft","site_and_location_no":{"_":200107},"parish":"Sønder Hygum sogn"},"geometry":null,"depictions":[{"title":"C 59210"}]},{"@id":128,"type":"Feature","properties":{"title":"","place_name":"Dalshøj I","site_and_location_no":{"_":60403},"parish":"Ibsker sogn"},"geometry":null,"depictions":[{"title":"C 59373"}]},{"@id":129,"type":"Feature","properties":{"title":"","place_name":"Stavnager","site_and_location_no":{"_":190410},"parish":"Seem sogn"},"geometry":null,"depictions":[{"title":"C 59593"}]},{"@id":130,"type":"Feature","properties":{"title":"","place_name":"Tofteagre","site_and_location_no":{"_":40507},"parish":"Herlufsholm sogn"},"geometry":null,"depictions":[{"title":"C 60259"}]},{"@id":131,"type":"Feature","properties":{"title":"","place_name":"Brændmosegård","site_and_location_no":{"_":20505},"parish":"Karlstrup sogn"},"geometry":null,"depictions":[{"title":"C 60272"}]},{"@id":132,"type":"Feature","properties":{"title":"","place_name":"Hillerslev Ii","site_and_location_no":{"_":110202},"parish":"Hillerslev sogn"},"geometry":null,"depictions":[{"title":"C 60471"}]},{"@id":133,"type":"Feature","properties":{"title":"","place_name":"Skjern","site_and_location_no":{"_":130710},"parish":"Skjern sogn"},"geometry":null,"depictions":[{"title":"C 60586"}]},{"@id":134,"type":"Feature","properties":{"title":"","site_and_location_no":{"_":0},"parish":" sogn"},"geometry":null,"depictions":[{"title":"C 60880"}]},{"@id":135,"type":"Feature","properties":{"title":"","place_name":"Vaarst By","site_and_location_no":{"_":120104},"parish":"Gunderup sogn"},"geometry":null,"depictions":[{"title":"C 60950"}]},{"@id":136,"type":"Feature","properties":{"title":"","place_name":"Vaarst By","site_and_location_no":{"_":120104},"parish":"Gunderup sogn"},"geometry":null,"depictions":[{"title":"C 60972"}]},{"@id":137,"type":"Feature","properties":{"title":"","place_name":"Vaarst By","site_and_location_no":{"_":120104},"parish":"Gunderup sogn"},"geometry":null,"depictions":[{"title":"C 60997"}]},{"@id":138,"type":"Feature","properties":{"title":"","place_name":"Pæregård","site_and_location_no":{"_":60105},"parish":"Olsker sogn"},"geometry":null,"depictions":[{"title":"C 61063"}]},{"@id":139,"type":"Feature","properties":{"title":"","place_name":"Hvilebækgård","site_and_location_no":{"_":10101},"parish":"Annisse sogn"},"geometry":null,"depictions":[{"title":"C 61101"}]},{"@id":140,"type":"Feature","properties":{"title":"","site_and_location_no":{"_":0},"parish":" sogn"},"geometry":null,"depictions":[{"title":"C 61219"}]},{"@id":141,"type":"Feature","properties":{"title":"","place_name":"Sandegård - Hullegård","site_and_location_no":{"_":60406},"parish":"Østermarie sogn"},"geometry":null,"depictions":[{"title":"C 61637"}]},{"@id":142,"type":"Feature","properties":{"title":"","place_name":"Borre Nord","site_and_location_no":{"_":130512},"parish":"Vejerslev sogn"},"geometry":null,"depictions":[{"title":"C 62072"}]},{"@id":143,"type":"Feature","properties":{"title":"","place_name":"Ved Lundestien","site_and_location_no":{"_":20309},"parish":"Store Magleby sogn"},"geometry":null,"depictions":[{"title":"C 62514"}]},{"@id":144,"type":"Feature","properties":{"title":"","place_name":"Ulsted","site_and_location_no":{"_":120611},"parish":"Ulsted sogn"},"geometry":null,"depictions":[{"title":"C 62636"}]},{"@id":145,"type":"Feature","properties":{"title":"","place_name":"Dommerby","site_and_location_no":{"_":130102},"parish":"Dommerby sogn"},"geometry":null,"depictions":[{"title":"C 62688"}]},{"@id":146,"type":"Feature","properties":{"title":"","place_name":"Lundsgård Mark","site_and_location_no":{"_":80811},"parish":"Åsum sogn"},"geometry":null,"depictions":[{"title":"C 63337"}]},{"@id":147,"type":"Feature","properties":{"title":"","place_name":"Lundsgård Mark","site_and_location_no":{"_":80811},"parish":"Åsum sogn"},"geometry":null,"depictions":[{"title":"C 63343"}]},{"@id":148,"type":"Feature","properties":{"title":"","place_name":"Lundsgård Mark","site_and_location_no":{"_":80811},"parish":"Åsum sogn"},"geometry":null,"depictions":[{"title":"C 63373"}]},{"@id":149,"type":"Feature","properties":{"title":"","place_name":"Lundsgård Mark","site_and_location_no":{"_":80811},"parish":"Åsum sogn"},"geometry":null,"depictions":[{"title":"C 63422"}]},{"@id":150,"type":"Feature","properties":{"title":"","place_name":"Lundsgård Mark","site_and_location_no":{"_":80811},"parish":"Åsum sogn"},"geometry":null,"depictions":[{"title":"C 63426"}]},{"@id":151,"type":"Feature","properties":{"title":"","place_name":"Lindagrene","site_and_location_no":{"_":90104},"parish":"Gudme sogn"},"geometry":null,"depictions":[{"title":"C 63649"}]},{"@id":152,"type":"Feature","properties":{"title":"","place_name":"Egelundsparken","site_and_location_no":{"_":20205},"parish":"Herstedvester sogn"},"geometry":null,"depictions":[{"title":"C 63847"}]},{"@id":153,"type":"Feature","properties":{"title":"","place_name":"Lindagrene","site_and_location_no":{"_":90104},"parish":"Gudme sogn"},"geometry":null,"depictions":[{"title":"C 63884"}]},{"@id":154,"type":"Feature","properties":{"title":"","place_name":"Lindagrene","site_and_location_no":{"_":90104},"parish":"Gudme sogn"},"geometry":null,"depictions":[{"title":"C 63919"}]},{"@id":155,"type":"Feature","properties":{"title":"","place_name":"Lønborg Kirke","site_and_location_no":{"_":180605},"parish":"Lønborg sogn"},"geometry":null,"depictions":[{"title":"C 64047"}]},{"@id":156,"type":"Feature","properties":{"title":"","place_name":"Munke Bjergby","site_and_location_no":{"_":40108},"parish":"Munke Bjergby sogn"},"geometry":null,"depictions":[{"title":"C 64523"}]},{"@id":157,"type":"Feature","properties":{"title":"","place_name":"Hørup","site_and_location_no":{"_":10312},"parish":"Slangerup sogn"},"geometry":null,"depictions":[{"title":"C 64558"}]},{"@id":158,"type":"Feature","properties":{"title":"","place_name":"Neder Hallum","site_and_location_no":{"_":130810},"parish":"Ravnstrup sogn"},"geometry":null,"depictions":[{"title":"C 64818"}]},{"@id":159,"type":"Feature","properties":{"title":"","site_and_location_no":{"_":0},"parish":" sogn"},"geometry":null,"depictions":[{"title":"C 64856"}]},{"@id":160,"type":"Feature","properties":{"title":"","place_name":"Brændmosegård","site_and_location_no":{"_":20505},"parish":"Karlstrup sogn"},"geometry":null,"depictions":[{"title":"C 64866 a-b"}]},{"@id":161,"type":"Feature","properties":{"title":"","place_name":"Gudme Iv","site_and_location_no":{"_":90104},"parish":"Gudme sogn"},"geometry":null,"depictions":[{"title":"C 65465"}]},{"@id":162,"type":"Feature","properties":{"title":"","place_name":"Gudme Iv","site_and_location_no":{"_":90104},"parish":"Gudme sogn"},"geometry":null,"depictions":[{"title":"C 65472"}]},{"@id":163,"type":"Feature","properties":{"title":"","place_name":"Gudme Iv","site_and_location_no":{"_":90104},"parish":"Gudme sogn"},"geometry":null,"depictions":[{"title":"C 65473"}]},{"@id":164,"type":"Feature","properties":{"title":"","place_name":"Hillerslev Ii","site_and_location_no":{"_":110202},"parish":"Hillerslev sogn"},"geometry":null,"depictions":[{"title":"C 65589"}]},{"@id":165,"type":"Feature","properties":{"title":"","place_name":"Vetterslev","site_and_location_no":{"_":40219},"parish":"Vetterslev sogn"},"geometry":null,"depictions":[{"title":"C 65802"}]},{"@id":166,"type":"Feature","properties":{"title":"","place_name":"Møllebjerg I-Ii","site_and_location_no":{"_":60106},"parish":"Rutsker sogn"},"geometry":null,"depictions":[{"title":"C 66057"}]},{"@id":167,"type":"Feature","properties":{"title":"","place_name":"Kallehavegårdskatten","site_and_location_no":{"_":90704},"parish":"Rise sogn"},"geometry":null,"depictions":[{"title":"C 66242"}]},{"@id":168,"type":"Feature","properties":{"title":"","place_name":"Kallehavegårdskatten","site_and_location_no":{"_":90704},"parish":"Rise sogn"},"geometry":null,"depictions":[{"title":"C 66427"}]},{"@id":169,"type":"Feature","properties":{"title":"","place_name":"Kallehavegårdskatten","site_and_location_no":{"_":90704},"parish":"Rise sogn"},"geometry":null,"depictions":[{"title":"C 66969"}]},{"@id":170,"type":"Feature","properties":{"title":"","place_name":"Kragelund","site_and_location_no":{"_":140410},"parish":"Vindblæs sogn"},"geometry":null,"depictions":[{"title":"C 67457"}]},{"@id":171,"type":"Feature","properties":{"title":"","place_name":"Komdrup","site_and_location_no":{"_":120305},"parish":"Komdrup sogn"},"geometry":null,"depictions":[{"title":"C 67477"}]},{"@id":172,"type":"Feature","properties":{"title":"","place_name":"Ågårdsmark","site_and_location_no":{"_":110704},"parish":"Kettrup sogn"},"geometry":null,"depictions":[{"title":"C 67602"}]},{"@id":173,"type":"Feature","properties":{"title":"","place_name":"Karstoft","site_and_location_no":{"_":180209},"parish":"Sevel sogn"},"geometry":null,"depictions":[{"title":"C 67735"}]},{"@id":174,"type":"Feature","properties":{"title":"","place_name":"Forneby","site_and_location_no":{"_":70603},"parish":"Engestofte sogn"},"geometry":null,"depictions":[{"title":"C 68192"}]},{"@id":175,"type":"Feature","properties":{"title":"","place_name":"Karstoft","site_and_location_no":{"_":180209},"parish":"Sevel sogn"},"geometry":null,"depictions":[{"title":"C 68205"}]},{"@id":176,"type":"Feature","properties":{"title":"","site_and_location_no":{"_":0},"parish":" sogn"},"geometry":null,"depictions":[{"title":"C 68217"}]},{"@id":177,"type":"Feature","properties":{"title":"","place_name":"Hallelev","site_and_location_no":{"_":40318},"parish":"Sønderup sogn"},"geometry":null,"depictions":[{"title":"C 68314"}]},{"@id":178,"type":"Feature","properties":{"title":"","place_name":"Frøslev Matr. 10C","site_and_location_no":{"_":50601},"parish":"Frøslev sogn"},"geometry":null,"depictions":[{"title":"C 68469"}]},{"@id":179,"type":"Feature","properties":{"title":"","place_name":"Busbjergvej, Gerning","site_and_location_no":{"_":130502},"parish":"Gerning sogn"},"geometry":null,"depictions":[{"title":"C 68570"}]},{"@id":180,"type":"Feature","properties":{"title":"","place_name":"Tokkendrup","site_and_location_no":{"_":80308},"parish":"Østrup sogn"},"geometry":null,"depictions":[{"title":"C 68876"}]},{"@id":181,"type":"Feature","properties":{"title":"","place_name":"Ranum Øst","site_and_location_no":{"_":120710},"parish":"Ranum sogn"},"geometry":null,"depictions":[{"title":"C 68914"}]},{"@id":182,"type":"Feature","properties":{"title":"","place_name":"Forneby","site_and_location_no":{"_":70603},"parish":"Engestofte sogn"},"geometry":null,"depictions":[{"title":"C 69226 a-u"}]},{"@id":183,"type":"Feature","properties":{"title":"","place_name":"Kr. Skensved Syd","site_and_location_no":{"_":20507},"parish":"Kirke Skensved sogn"},"geometry":null,"depictions":[{"title":"C 69551"}]},{"@id":184,"type":"Feature","properties":{"title":"","place_name":"Lillevorde","site_and_location_no":{"_":120106},"parish":"Lillevorde sogn"},"geometry":null,"depictions":[{"title":"C 69742"}]},{"@id":185,"type":"Feature","properties":{"title":"","place_name":"V. Torup By","site_and_location_no":{"_":110710},"parish":"Vester Torup sogn"},"geometry":null,"depictions":[{"title":"C 69752"}]},{"@id":186,"type":"Feature","properties":{"title":"","place_name":"Gørding Kirke","site_and_location_no":{"_":190203},"parish":"Gørding sogn"},"geometry":null,"depictions":[{"title":"C 69860"}]},{"@id":187,"type":"Feature","properties":{"title":"","place_name":"Skaftelev","site_and_location_no":{"_":40310},"parish":"Nordrupvester sogn"},"geometry":null,"depictions":[{"title":"C 70271"}]},{"@id":188,"type":"Feature","properties":{"title":"","place_name":"Nørrebøl, Lønborg","site_and_location_no":{"_":180605},"parish":"Lønborg sogn"},"geometry":null,"depictions":[{"title":"C 70333"}]},{"@id":189,"type":"Feature","properties":{"title":"","place_name":"Spegesilden","site_and_location_no":{"_":90706},"parish":"Tranderup sogn"},"geometry":null,"depictions":[{"title":"C 70731"}]},{"@id":190,"type":"Feature","properties":{"title":"","place_name":"Spegesilden","site_and_location_no":{"_":90706},"parish":"Tranderup sogn"},"geometry":null,"depictions":[{"title":"C 70732"}]},{"@id":191,"type":"Feature","properties":{"title":"","place_name":"Spegesilden","site_and_location_no":{"_":90706},"parish":"Tranderup sogn"},"geometry":null,"depictions":[{"title":"C 70739"}]},{"@id":192,"type":"Feature","properties":{"title":"","place_name":"Spegesilden","site_and_location_no":{"_":90706},"parish":"Tranderup sogn"},"geometry":null,"depictions":[{"title":"C 70746"}]},{"@id":193,"type":"Feature","properties":{"title":"","place_name":"Nybøllegård","site_and_location_no":{"_":90411},"parish":"Hillerslev sogn"},"geometry":null,"depictions":[{"title":"C 70948"}]},{"@id":194,"type":"Feature","properties":{"title":"","place_name":"Galsted, Haderslev","site_and_location_no":{"_":0},"parish":" sogn"},"geometry":null,"depictions":[{"title":"DCCXXXVIII"}]},{"@id":195,"type":"Feature","properties":{"title":"","place_name":"Unknown","site_and_location_no":{"_":"#VALUE!"},"parish":"Unknown sogn"},"geometry":null,"depictions":[{"title":"DCCCXXXII"}]},{"@id":196,"type":"Feature","properties":{"title":"","site_and_location_no":{"_":0},"parish":" sogn"},"geometry":null,"depictions":[{"title":"DCCCXXXIII"}]},{"@id":197,"type":"Feature","properties":{"title":"","site_and_location_no":{"_":0},"parish":" sogn"},"geometry":null,"depictions":[{"title":"DCCCXXXIV"}]},{"@id":198,"type":"Feature","properties":{"title":"","place_name":"Bornholm","site_and_location_no":{"_":60000},"parish":"Unknown sogn"},"geometry":null,"depictions":[{"title":"MMC"}]},{"@id":199,"type":"Feature","properties":{"title":"","site_and_location_no":{"_":0},"parish":" sogn"},"geometry":null,"depictions":[{"title":635}]},{"@id":200,"type":"Feature","properties":{"title":"","place_name":"Elsehoved","site_and_location_no":{"_":90107},"parish":"Oure sogn"},"geometry":null,"depictions":[{"title":2700}]},{"@id":201,"type":"Feature","properties":{"title":"","place_name":"Overhornbæk","site_and_location_no":{"_":131202},"parish":"Hornbæk sogn"},"geometry":null,"depictions":[{"title":9614}]},{"@id":202,"type":"Feature","properties":{"title":"","place_name":"Horne Mølle","site_and_location_no":{"_":20212},"parish":"Smørum sogn"},"geometry":null,"depictions":[{"title":10739}]},{"@id":203,"type":"Feature","properties":{"title":"","place_name":"Hardenberg","site_and_location_no":{"_":70615},"parish":"Radsted sogn"},"geometry":null,"depictions":[{"title":10884}]},{"@id":204,"type":"Feature","properties":{"title":"","place_name":"Bjørnsholm","site_and_location_no":{"_":120809},"parish":"Bjørnsholm sogn"},"geometry":null,"depictions":[{"title":"11495a"}]},{"@id":205,"type":"Feature","properties":{"title":"","place_name":"Maglemose,Gummersmark","site_and_location_no":{"_":50101},"parish":"Bjæverskov sogn"},"geometry":null,"depictions":[{"title":12524}]},{"@id":206,"type":"Feature","properties":{"title":"","place_name":"Bjørnsholm Sogn","site_and_location_no":{"_":120809},"parish":"Overlade sogn"},"geometry":null,"depictions":[{"title":21405}]},{"@id":207,"type":"Feature","properties":{"title":"","place_name":"Skjerne","site_and_location_no":{"_":70103},"parish":"Gundslev sogn"},"geometry":null,"depictions":[{"title":22147}]},{"@id":208,"type":"Feature","properties":{"title":"","place_name":"Elsehoved","site_and_location_no":{"_":90107},"parish":"Oure sogn"},"geometry":null,"depictions":[{"title":22375}]},{"@id":209,"type":"Feature","properties":{"title":"","place_name":"Dalshøj","site_and_location_no":{"_":60403},"parish":"Ibsker sogn"},"geometry":null,"depictions":[{"title":"Dnf. 1/51"}]},{"@id":210,"type":"Feature","properties":{"title":"","place_name":"Rytterbakken","site_and_location_no":{"_":60405},"parish":"Østerlarsker sogn"},"geometry":null,"depictions":[{"title":"Dnf. 1/92"}]},{"@id":211,"type":"Feature","properties":{"title":"","place_name":"Biskopsenge","site_and_location_no":{"_":60403},"parish":"Ibsker sogn"},"geometry":null,"depictions":[{"title":"Dnf. 4/86"}]},{"@id":212,"type":"Feature","properties":{"title":"","place_name":"Klithuse","site_and_location_no":{"_":100708},"parish":"Tranum sogn"},"geometry":null,"depictions":[{"title":"Dnf. 8/41"}]},{"@id":213,"type":"Feature","properties":{"title":"","site_and_location_no":{"_":0},"parish":" sogn"},"geometry":null,"depictions":[{"title":"Dnf. 11/85"}]},{"@id":214,"type":"Feature","properties":{"title":"","place_name":"Agerskov","site_and_location_no":{"_":180304},"parish":"Bording sogn"},"geometry":null,"depictions":[{"title":"Dnf. 12/19"}]},{"@id":215,"type":"Feature","properties":{"title":"","place_name":"Lundeborg","site_and_location_no":{"_":90105},"parish":"Hesselager sogn"},"geometry":null,"depictions":[{"title":"Dnf. 13/97"}]},{"@id":216,"type":"Feature","properties":{"title":"","place_name":"Sylten","site_and_location_no":{"_":60403},"parish":"Ibsker sogn"},"geometry":null,"depictions":[{"title":"Dnf. 25/88"}]},{"@id":217,"type":"Feature","properties":{"title":"","place_name":"Sandegård","site_and_location_no":{"_":60205},"parish":"Åker sogn"},"geometry":null,"depictions":[{"title":"Dnf. 28/91"}]},{"@id":218,"type":"Feature","properties":{"title":"","place_name":"Gudme I Vest","site_and_location_no":{"_":90104},"parish":"Gudme sogn"},"geometry":null,"depictions":[{"title":"Dnf. 37/96"}]},{"@id":219,"type":"Feature","properties":{"title":"","site_and_location_no":{"_":0},"parish":" sogn"},"geometry":null,"depictions":[{"title":"Dnf. 40/00"}]},{"@id":220,"type":"Feature","properties":{"title":"","place_name":"Kirke Skensved, Gammeltoft","site_and_location_no":{"_":20507},"parish":"Kirke Skensved sogn"},"geometry":null,"depictions":[{"title":"Dnf. 41/93"}]},{"@id":221,"type":"Feature","properties":{"title":"","place_name":"Gudme I Vest","site_and_location_no":{"_":90104},"parish":"Gudme sogn"},"geometry":null,"depictions":[{"title":"Dnf. 41/96"}]},{"@id":222,"type":"Feature","properties":{"title":"","place_name":"Østervang","site_and_location_no":{"_":20103},"parish":"Ejby sogn"},"geometry":null,"depictions":[{"title":"Dnf. 42/00"}]},{"@id":223,"type":"Feature","properties":{"title":"","place_name":"Gudme-Området","site_and_location_no":{"_":90104},"parish":"Gudme sogn"},"geometry":null,"depictions":[{"title":"Dnf. 47/99"}]},{"@id":224,"type":"Feature","properties":{"title":"","place_name":"Gudme-Området","site_and_location_no":{"_":90104},"parish":"Gudme sogn"},"geometry":null,"depictions":[{"title":"Dnf. 51/99"}]},{"@id":225,"type":"Feature","properties":{"title":"","place_name":"Bakkegård / Agerbygård","site_and_location_no":{"_":60405},"parish":"Østerlarsker sogn"},"geometry":null,"depictions":[{"title":"Dnf. 56/97"}]},{"@id":226,"type":"Feature","properties":{"title":"","place_name":"Gudme","site_and_location_no":{"_":90104},"parish":"Gudme sogn"},"geometry":null,"depictions":[{"title":"Dnf. 61/83"}]},{"@id":227,"type":"Feature","properties":{"title":"","place_name":"Biskopsenge Iii B","site_and_location_no":{"_":60403},"parish":"Ibsker sogn"},"geometry":null,"depictions":[{"title":"Dnf. 62/00"}]},{"@id":228,"type":"Feature","properties":{"title":"","place_name":"Sandegård","site_and_location_no":{"_":60205},"parish":"Åker sogn"},"geometry":null,"depictions":[{"title":"Dnf. 65/93"}]},{"@id":229,"type":"Feature","properties":{"title":"","place_name":"Sandegård","site_and_location_no":{"_":60205},"parish":"Åker sogn"},"geometry":null,"depictions":[{"title":"Dnf. 66/93"}]},{"@id":230,"type":"Feature","properties":{"title":"","place_name":"Gudme-Området","site_and_location_no":{"_":90104},"parish":"Gudme sogn"},"geometry":null,"depictions":[{"title":"Dnf. 70/99"}]},{"@id":231,"type":"Feature","properties":{"title":"","place_name":"Østervang","site_and_location_no":{"_":20103},"parish":"Ejby sogn"},"geometry":null,"depictions":[{"title":"Dnf. 79/98"}]},{"@id":232,"type":"Feature","properties":{"title":"","place_name":"Karlshøj","site_and_location_no":{"_":60104},"parish":"Klemensker sogn"},"geometry":null,"depictions":[{"title":"Dnf. 82/96"}]},{"@id":233,"type":"Feature","properties":{"title":"","site_and_location_no":{"_":0},"parish":" sogn"},"geometry":null,"depictions":[{"title":"Dnf. 119/90"}]},{"@id":234,"type":"Feature","properties":{"title":"","place_name":"Holsegård","site_and_location_no":{"_":60405},"parish":"Østerlarsker sogn"},"geometry":null,"depictions":[{"title":"Dnf. 119/97"}]},{"@id":235,"type":"Feature","properties":{"title":"","place_name":"Sylten 2","site_and_location_no":{"_":60403},"parish":"Ibsker sogn"},"geometry":null,"depictions":[{"title":"Dnf. 128/90"}]},{"@id":236,"type":"Feature","properties":{"title":"","place_name":"Sylten 2","site_and_location_no":{"_":60403},"parish":"Ibsker sogn"},"geometry":null,"depictions":[{"title":"Dnf. 148/90"}]},{"@id":237,"type":"Feature","properties":{"title":"","place_name":"Smørengegård","site_and_location_no":{"_":60305},"parish":"Vestermarie sogn"},"geometry":null,"depictions":[{"title":"Dnf. 156/90"}]},{"@id":238,"type":"Feature","properties":{"title":"","place_name":"Sorte Muld","site_and_location_no":{"_":60403},"parish":"Ibsker sogn"},"geometry":null,"depictions":[{"title":"Dnf. 293/95"}]},{"@id":239,"type":"Feature","properties":{"title":"","place_name":"Sorte Muld","site_and_location_no":{"_":60403},"parish":"Ibsker sogn"},"geometry":null,"depictions":[{"title":"Dnf. 294/95"}]},{"@id":240,"type":"Feature","properties":{"title":"","place_name":"Sylten 2","site_and_location_no":{"_":60403},"parish":"Ibsker sogn"},"geometry":null,"depictions":[{"title":"Dnf. 427/94"}]},{"@id":241,"type":"Feature","properties":{"title":"","place_name":"Sylten 2","site_and_location_no":{"_":60403},"parish":"Ibsker sogn"},"geometry":null,"depictions":[{"title":"Dnf. 428/94"}]},{"@id":242,"type":"Feature","properties":{"title":"","place_name":"Unknown","site_and_location_no":{"_":"#VALUE!"},"parish":"Gudme sogn"},"geometry":null,"depictions":[{"title":"GUI/484"}]},{"@id":243,"type":"Feature","properties":{"title":"","place_name":"Unknown","site_and_location_no":{"_":"#VALUE!"},"parish":"Gudme sogn"},"geometry":null,"depictions":[{"title":"C 45397"}]},{"@id":244,"type":"Feature","properties":{"title":"","place_name":"Unknown","site_and_location_no":{"_":"#VALUE!"},"parish":"Gudme sogn"},"geometry":null,"depictions":[{"title":"C 45397 "}]},{"@id":245,"type":"Feature","properties":{"title":"","place_name":"Unknown","site_and_location_no":{"_":"#VALUE!"},"parish":"Gudme sogn"},"geometry":null,"depictions":[{"title":"C 45397  "}]},{"@id":246,"type":"Feature","properties":{"title":"","place_name":"Unknown","site_and_location_no":{"_":"#VALUE!"},"parish":"Gudme sogn"},"geometry":null,"depictions":[{"title":"C 45397  "}]},{"@id":247,"type":"Feature","properties":{"title":"","place_name":"Unknown","site_and_location_no":{"_":"#VALUE!"},"parish":"Gudme sogn"},"geometry":null,"depictions":[{"title":"C 45398"}]},{"@id":248,"type":"Feature","properties":{"title":"","place_name":"Unknown","site_and_location_no":{"_":"#VALUE!"},"parish":"Gudme sogn"},"geometry":null,"depictions":[{"title":"C 45399"}]},{"@id":249,"type":"Feature","properties":{"title":"","place_name":"Unknown","site_and_location_no":{"_":0},"parish":" sogn"},"geometry":null,"depictions":[{"title":"Boye753"}]},{"@id":250,"type":"Feature","properties":{"title":"","place_name":"Unknown","site_and_location_no":{"_":0},"parish":" sogn"},"geometry":null,"depictions":[{"title":"Boye754"}]},{"@id":251,"type":"Feature","properties":{"title":"","place_name":"Unknown","parish":" sogn"},"geometry":null,"depictions":[{"title":"Boye754"}]}],"indexing":{"@type":"Dataset","name":"CSV katalog","description":"","license":"https://creativecommons.org/licenses/by/4.0/","identifier":"https://w3id.org/CSV%20katalog","temporalCoverage":"1066/2022","spatialCoverage":{"@type":"GeoShape","box":"0.580101 0.00149 60.355 9.78667","geo":{"@type":"GeoShape","box":"55 15 55 15"}}}}